NUSAT-48 (HENRIETTA LE*)
1 60498U 24149AG  26068.80506098  .00012988  00000+0  45212-3 0  9999
2 60498  97.3923 150.8264 0002754 263.3026  96.7901 15.29812597 86946
STARLINK-36070          
1 66864U 25281S   26068.10784039  .00030478  00000+0  11126-2 0  9996
2 66864  43.0021 347.0065 0001805 253.1497 106.9157 15.27576757 16099
